STARLINK-31156
1 58743U 24005R   26061.16668981  .01979948  00000+0  76722-1 0  9999
2 58743  42.9987 261.7081 0001851 265.8439 301.1905 15.21999730  5768
